[Satellite]
VERSION=1.1
NAME=IRIDIUM 97 [+]
NICKNAME=IRIDIUM 97 [+]
TLE1=1 27450U 02031A   19317.52801301  .00000010  00000-0 -34150-5 0  9995
TLE2=2 27450  86.4184 311.4377 0002262  93.9867 266.1590 14.38537801916534
STATUS=4
